[{"OBJECT_NAME":"STARLINK-4557","OBJECT_ID":"2022-097AW","EPOCH":"2026-03-09T11:13:24.248064","MEAN_MOTION":15.08842876,"ECCENTRICITY":0.00012694,"INCLINATION":53.2167,"RA_OF_ASC_NODE":104.8783,"ARG_OF_PERICENTER":91.0838,"MEAN_ANOMALY":269.03,"EPHEMERIS_TYPE":0,"CLASSIFICATION_TYPE":"U","NORAD_CAT_ID":53432,"ELEMENT_SET_NO":999,"REV_AT_EPOCH":19875,"BSTAR":-4.6281808e-5,"MEAN_MOTION_DOT":-1.024e-5,"MEAN_MOTION_DDOT":0},{"OBJECT_NAME":"JILIN-01 KUANFU 02B 1","OBJECT_ID":"2024-169A","EPOCH":"2026-03-09T22:23:47.298048","MEAN_MOTION":15.0926333,"ECCENTRICITY":0.00080135,"INCLINATION":97.5562,"RA_OF_ASC_NODE":159.9206,"ARG_OF_PERICENTER":20.9587,"MEAN_ANOMALY":339.1969,"EPHEMERIS_TYPE":0,"CLASSIFICATION_TYPE":"U","NORAD_CAT_ID":61189,"ELEMENT_SET_NO":999,"REV_AT_EPOCH":8085,"BSTAR":0.00041363535,"MEAN_MOTION_DOT":6.529e-5,"MEAN_MOTION_DDOT":0}]
